{"type": "FeatureCollection", "features": [ {"type": "Feature", "properties": {"norad_id": 40118, "name": "GAOFEN-2", "group": "resource", "lat": -75.51845039632337, "lon": 89.21756324323611, "alt_km": 640.5515022772397, "timestamp": "2025-12-22T20:43:45.499923+00:00", "meta": {"OBJECT_NAME": "GAOFEN-2", "OBJECT_ID": "2014-049A", "EPOCH": "2025-12-22T14:35:36.265632", "MEAN_MOTION": 14.80626552, "ECCENTRICITY": 0.00087969, "INCLINATION": 98.0373, "RA_OF_ASC_NODE": 55.7937, "ARG_OF_PERICENTER": 85.6163, "MEAN_ANOMALY": 274.6054, "EPHEMERIS_TYPE": 0, "CLASSIFICATION_TYPE": "U", "NORAD_CAT_ID": 40118, "ELEMENT_SET_NO": 999, "REV_AT_EPOCH": 61310, "BSTAR": 0.00017121784, "MEAN_MOTION_DOT": 1.262e-05, "MEAN_MOTION_DDOT": 0}, "tle": {"line1": "1 40118U 14049A   25356.60805863  .00001262  00000+0  17122-3 0  9995", "line2": "2 40118  98.0373  55.7937 0008796  85.6163 274.6054 14.80626552613109"}}, "geometry": {"type": "Point", "coordinates": [89.21756324323611, -75.51845039632337]}}, {"type": "Feature", "properties": {"norad_id": 40143, "name": "YAOGAN-21", "group": "resource", "lat": 13.564705324563294, "lon": 37.9952755618865, "alt_km": 489.59545158419587, "timestamp": "2025-12-22T20:43:45.499933+00:00", "meta": {"OBJECT_NAME": "YAOGAN-21", "OBJECT_ID": "2014-053A", "EPOCH": "2025-12-22T14:21:55.372320", "MEAN_MOTION": 15.23773819, "ECCENTRICITY": 0.00088144, "INCLINATION": 97.1739, "RA_OF_ASC_NODE": 39.4831, "ARG_OF_PERICENTER": 9.3165, "MEAN_ANOMALY": 350.8234, "EPHEMERIS_TYPE": 0, "CLASSIFICATION_TYPE": "U", "NORAD_CAT_ID": 40143, "ELEMENT_SET_NO": 999, "REV_AT_EPOCH": 62804, "BSTAR": 0.00036131201, "MEAN_MOTION_DOT": 8.637e-05, "MEAN_MOTION_DDOT": 0}, "tle": {"line1": "1 40143U 14053A   25356.59855755  .00008637  00000+0  36131-3 0  9995", "line2": "2 40143  97.1739  39.4831 0008814   9.3165 350.8234 15.23773819628044"}}, "geometry": {"type": "Point", "coordinates": [37.9952755618865, 13.564705324563294]}}, {"type": "Feature", "properties": {"norad_id": 40275, "name": "YAOGAN-22", "group": "resource", "lat": -13.285633578712332, "lon": -42.14297637593987, "alt_km": 1202.186356018753, "timestamp": "2025-12-22T20:43:45.499944+00:00", "meta": {"OBJECT_NAME": "YAOGAN-22", "OBJECT_ID": "2014-063A", "EPOCH": "2025-12-22T08:47:50.561088", "MEAN_MOTION": 13.15522995, "ECCENTRICITY": 0.00060542, "INCLINATION": 100.7428, "RA_OF_ASC_NODE": 139.9222, "ARG_OF_PERICENTER": 225.1787, "MEAN_ANOMALY": 134.8832, "EPHEMERIS_TYPE": 0, "CLASSIFICATION_TYPE": "U", "NORAD_CAT_ID": 40275, "ELEMENT_SET_NO": 999, "REV_AT_EPOCH": 53656, "BSTAR": 9.8374726e-05, "MEAN_MOTION_DOT": -1e-07, "MEAN_MOTION_DDOT": 0}, "tle": {"line1": "1 40275U 14063A   25356.36655742 -.00000010  00000+0  98375-4 0  9998", "line2": "2 40275 100.7428 139.9222 0006054 225.1787 134.8832 13.15522995536563"}}, "geometry": {"type": "Point", "coordinates": [-42.14297637593987, -13.285633578712332]}}, {"type": "Feature", "properties": {"norad_id": 40298, "name": "ASNARO", "group": "resource", "lat": -82.47972667493401, "lon": 151.0210510855566, "alt_km": 518.0723023048367, "timestamp": "2025-12-22T20:43:45.499954+00:00", "meta": {"OBJECT_NAME": "ASNARO", "OBJECT_ID": "2014-070A", "EPOCH": "2025-12-22T13:13:02.099136", "MEAN_MOTION": 15.19691235, "ECCENTRICITY": 0.00057546, "INCLINATION": 97.3648, "RA_OF_ASC_NODE": 72.258, "ARG_OF_PERICENTER": 95.5391, "MEAN_ANOMALY": 264.65, "EPHEMERIS_TYPE": 0, "CLASSIFICATION_TYPE": "U", "NORAD_CAT_ID": 40298, "ELEMENT_SET_NO": 999, "REV_AT_EPOCH": 61718, "BSTAR": 0.0007667683, "MEAN_MOTION_DOT": 0.00016331, "MEAN_MOTION_DDOT": 0}, "tle": {"line1": "1 40298U 14070A   25356.55071874  .00016331  00000+0  76677-3 0  9992", "line2": "2 40298  97.3648  72.2580 0005754  95.5391 264.6500 15.19691235617187"}}, "geometry": {"type": "Point", "coordinates": [151.0210510855566, -82.47972667493401]}}, {"type": "Feature", "properties": {"norad_id": 40310, "name": "YAOGAN-24", "group": "resource", "lat": 73.2485432022881, "lon": -23.660961702698156, "alt_km": 623.717929591824, "timestamp": "2025-12-22T20:43:45.499964+00:00", "meta": {"OBJECT_NAME": "YAOGAN-24", "OBJECT_ID": "2014-072A", "EPOCH": "2025-12-22T15:22:38.005824", "MEAN_MOTION": 14.76194771, "ECCENTRICITY": 0.00151402, "INCLINATION": 98.1229, "RA_OF_ASC_NODE": 127.7874, "ARG_OF_PERICENTER": 108.316, "MEAN_ANOMALY": 251.9698, "EPHEMERIS_TYPE": 0, "CLASSIFICATION_TYPE": "U", "NORAD_CAT_ID": 40310, "ELEMENT_SET_NO": 999, "REV_AT_EPOCH": 59767, "BSTAR": 8.7618021e-05, "MEAN_MOTION_DOT": 5.54e-06, "MEAN_MOTION_DDOT": 0}, "tle": {"line1": "1 40310U 14072A   25356.64071766  .00000554  00000+0  87618-4 0  9997", "line2": "2 40310  98.1229 127.7874 0015140 108.3160 251.9698 14.76194771597678"}}, "geometry": {"type": "Point", "coordinates": [-23.660961702698156, 73.2485432022881]}}, {"type": "Feature", "properties": {"norad_id": 40336, "name": "CBERS 4", "group": "resource", "lat": 14.494782655296644, "lon": -123.29544608683578, "alt_km": 773.6566725910079, "timestamp": "2025-12-22T20:43:45.499974+00:00", "meta": {"OBJECT_NAME": "CBERS 4", "OBJECT_ID": "2014-079A", "EPOCH": "2025-12-22T14:56:37.462848", "MEAN_MOTION": 14.35522373, "ECCENTRICITY": 0.00018536, "INCLINATION": 98.3296, "RA_OF_ASC_NODE": 54.3012, "ARG_OF_PERICENTER": 100.7543, "MEAN_ANOMALY": 259.3852, "EPHEMERIS_TYPE": 0, "CLASSIFICATION_TYPE": "U", "NORAD_CAT_ID": 40336, "ELEMENT_SET_NO": 999, "REV_AT_EPOCH": 57862, "BSTAR": 0.000169129, "MEAN_MOTION_DOT": 4.45e-06, "MEAN_MOTION_DDOT": 0}, "tle": {"line1": "1 40336U 14079A   25356.62265582  .00000445  00000+0  16913-3 0  9999", "line2": "2 40336  98.3296  54.3012 0001853 100.7543 259.3852 14.35522373578624"}}, "geometry": {"type": "Point", "coordinates": [-123.29544608683578, 14.494782655296644]}}, {"type": "Feature", "properties": {"norad_id": 40362, "name": "YAOGAN-26", "group": "resource", "lat": -57.95060084838869, "lon": 8.600843882367698, "alt_km": 452.5167792095144, "timestamp": "2025-12-22T20:43:45.499985+00:00", "meta": {"OBJECT_NAME": "YAOGAN-26", "OBJECT_ID": "2014-088A", "EPOCH": "2025-12-22T14:44:38.861088", "MEAN_MOTION": 15.39622871, "ECCENTRICITY": 0.00048773, "INCLINATION": 97.0634, "RA_OF_ASC_NODE": 356.937, "ARG_OF_PERICENTER": 358.8604, "MEAN_ANOMALY": 1.2631, "EPHEMERIS_TYPE": 0, "CLASSIFICATION_TYPE": "U", "NORAD_CAT_ID": 40362, "ELEMENT_SET_NO": 999, "REV_AT_EPOCH": 61046, "BSTAR": 0.00042449946, "MEAN_MOTION_DOT": 0.00016671, "MEAN_MOTION_DDOT": 0}, "tle": {"line1": "1 40362U 14088A   25356.61433867  .00016671  00000+0  42450-3 0  9993", "line2": "2 40362  97.0634 356.9370 0004877 358.8604   1.2631 15.39622871610463"}}, "geometry": {"type": "Point", "coordinates": [8.600843882367698, -57.95060084838869]}}, {"type": "Feature", "properties": {"norad_id": 40376, "name": "SMAP", "group": "resource", "lat": -58.289222491782866, "lon": 14.81685405517021, "alt_km": 690.2144720929882, "timestamp": "2025-12-22T20:43:45.499995+00:00", "meta": {"OBJECT_NAME": "SMAP", "OBJECT_ID": "2015-003A", "EPOCH": "2025-12-22T12:47:39.940224", "MEAN_MOTION": 14.63356569, "ECCENTRICITY": 0.00012284, "INCLINATION": 98.1289, "RA_OF_ASC_NODE": 1.1158, "ARG_OF_PERICENTER": 92.1773, "MEAN_ANOMALY": 267.957, "EPHEMERIS_TYPE": 0, "CLASSIFICATION_TYPE": "U", "NORAD_CAT_ID": 40376, "ELEMENT_SET_NO": 999, "REV_AT_EPOCH": 58178, "BSTAR": 9.917817e-05, "MEAN_MOTION_DOT": 4.65e-06, "MEAN_MOTION_DDOT": 0}, "tle": {"line1": "1 40376U 15003A   25356.53310116  .00000465  00000+0  99178-4 0  9992", "line2": "2 40376  98.1289   1.1158 0001228  92.1773 267.9570 14.63356569581780"}}, "geometry": {"type": "Point", "coordinates": [14.81685405517021, -58.289222491782866]}}, {"type": "Feature", "properties": {"norad_id": 40536, "name": "KOMPSAT-3A", "group": "resource", "lat": 51.02051461440999, "lon": -37.82794553109672, "alt_km": 426.49057081555475, "timestamp": "2025-12-22T20:43:45.500005+00:00", "meta": {"OBJECT_NAME": "KOMPSAT-3A", "OBJECT_ID": "2015-014A", "EPOCH": "2025-12-22T14:17:09.325248", "MEAN_MOTION": 15.44286784, "ECCENTRICITY": 0.00055817, "INCLINATION": 97.68, "RA_OF_ASC_NODE": 331.4884, "ARG_OF_PERICENTER": 105.471, "MEAN_ANOMALY": 254.7154, "EPHEMERIS_TYPE": 0, "CLASSIFICATION_TYPE": "U", "NORAD_CAT_ID": 40536, "ELEMENT_SET_NO": 999, "REV_AT_EPOCH": 59447, "BSTAR": 0.00043247335, "MEAN_MOTION_DOT": 0.00019844, "MEAN_MOTION_DDOT": 0}, "tle": {"line1": "1 40536U 15014A   25356.59524682  .00019844  00000+0  43247-3 0  9999", "line2": "2 40536  97.6800 331.4884 0005581 105.4710 254.7154 15.44286784594474"}}, "geometry": {"type": "Point", "coordinates": [-37.82794553109672, 51.02051461440999]}}, {"type": "Feature", "properties": {"norad_id": 40697, "name": "SENTINEL-2A", "group": "resource", "lat": 63.80184920061511, "lon": 51.39883484494936, "alt_km": 782.0601667771716, "timestamp": "2025-12-22T20:43:45.500015+00:00", "meta": {"OBJECT_NAME": "SENTINEL-2A", "OBJECT_ID": "2015-028A", "EPOCH": "2025-12-22T13:42:45.421920", "MEAN_MOTION": 14.30809375, "ECCENTRICITY": 0.00010747, "INCLINATION": 98.5738, "RA_OF_ASC_NODE": 68.9664, "ARG_OF_PERICENTER": 87.394, "MEAN_ANOMALY": 272.7366, "EPHEMERIS_TYPE": 0, "CLASSIFICATION_TYPE": "U", "NORAD_CAT_ID": 40697, "ELEMENT_SET_NO": 999, "REV_AT_EPOCH": 54847, "BSTAR": 0.00010418978, "MEAN_MOTION_DOT": 2.29e-06, "MEAN_MOTION_DDOT": 0}, "tle": {"line1": "1 40697U 15028A   25356.57135905  .00000229  00000+0  10419-3 0  9998", "line2": "2 40697  98.5738  68.9664 0001074  87.3940 272.7366 14.30809375548471"}}, "geometry": {"type": "Point", "coordinates": [51.39883484494936, 63.80184920061511]}}]}